{"type": "FeatureCollection", "features": [{"type": "Feature", "properties": {"label": "Urban core excluded due to radar double-bounce ambiguity", "source": "GHSL GHS-SMOD R2023A E2020 class 30"}, "geometry": {"type": "Polygon", "coordinates": [[[80.59470412842214, 16.513894655872427], [80.58446337821522, 16.513894655872427], [80.58658302651342, 16.52211374286788], [80.5763420069396, 16.52211374286788], [80.57846259650222, 16.530332963360344], [80.56822130740758, 16.53033296336034], [80.57458953308983, 16.55499142656058], [80.60531582883142, 16.554991426560584], [80.60744180388593, 16.563211181781952], [80.61768417260306, 16.56321118178195], [80.61555792741197, 16.554991426560587], [80.63604212457307, 16.554991426560584], [80.63816891003735, 16.563211181781952], [80.65865364747162, 16.56321118178195], [80.65652632173412, 16.55499142656058], [80.66676842031467, 16.55499142656058], [80.66251686711978, 16.538552317423882], [80.67275842588909, 16.538552317423882], [80.67063419835382, 16.530332963360344], [80.69111677654308, 16.530332963360337], [80.68899322225178, 16.52211374286788], [80.69997695388514, 16.52211374286788], [80.7, 16.500000000000004], [80.59112300802306, 16.5], [80.59470412842214, 16.513894655872427]]]}}]}